{
  "norad_id": 65888,
  "name": "STARLINK-35362",
  "history": [
    {
      "epoch": "2026-03-28T20:06:24.977376",
      "apogee_km": 475.919797582872,
      "perigee_km": 474.42509079309457,
      "latitude_deg": -16.17762544856194,
      "longitude_deg": 129.2277526401449,
      "semi_major_axis_km": 6853.309444187983,
      "eccentricity": 0.00010905,
      "inclination_deg": 53.1578,
      "raan_deg": 282.5768,
      "arg_perigee_deg": 78.1978,
      "mean_anomaly_deg": 281.9145,
      "mean_motion_rev_day": 15.30214276
    }
  ]
}